{
  "type": "FeatureCollection",
  "features": [
    {
      "type": "Feature",
      "properties": {
        "norad_id": 66919,
        "name": "HULIANWANG DIGUI-109",
        "group": "last-30-days",
        "lat": 14.364869443178325,
        "lon": -130.7816107709979,
        "alt_km": 888.0971119663891,
        "timestamp": "2025-12-26T09:30:52.343404+00:00",
        "meta_object_name": "HULIANWANG DIGUI-109",
        "meta_object_id": "2025-285E",
        "meta_epoch": "2025-12-26T03:37:24.501792",
        "meta_mean_motion": 14.03448686,
        "meta_eccentricity": 0.0010715,
        "meta_inclination": 50.0225,
        "meta_ra_of_asc_node": 62.6247,
        "meta_arg_of_pericenter": 334.1193,
        "meta_mean_anomaly": 25.9174,
        "meta_ephemeris_type": 0,
        "meta_classification_type": "U",
        "meta_norad_cat_id": 66919,
        "meta_element_set_no": 999,
        "meta_rev_at_epoch": 279,
        "meta_bstar": 0.0001233,
        "meta_mean_motion_dot": 4.3e-07,
        "meta_mean_motion_ddot": 0,
        "tle_line1": "1 66919U 25285E   25360.15097803  .00000043  00000+0  12330-3 0  9990",
        "tle_line2": "2 66919  50.0225  62.6247 0010715 334.1193  25.9174 14.03448686  2792"
      },
      "geometry": {
        "type": "Point",
        "coordinates": [
          -130.7816107709979,
          14.364869443178325
        ]
      }
    },
    {
      "type": "Feature",
      "properties": {
        "norad_id": 66920,
        "name": "HULIANWANG DIGUI-110",
        "group": "last-30-days",
        "lat": 11.820602310113118,
        "lon": -128.5226245920785,
        "alt_km": 884.7553522264125,
        "timestamp": "2025-12-26T09:30:52.343414+00:00",
        "meta_object_name": "HULIANWANG DIGUI-110",
        "meta_object_id": "2025-285F",
        "meta_epoch": "2025-12-26T05:18:57.181824",
        "meta_mean_motion": 14.03224112,
        "meta_eccentricity": 0.0004485,
        "meta_inclination": 50.0089,
        "meta_ra_of_asc_node": 62.3068,
        "meta_arg_of_pericenter": 337.6061,
        "meta_mean_anomaly": 22.4646,
        "meta_ephemeris_type": 0,
        "meta_classification_type": "U",
        "meta_norad_cat_id": 66920,
        "meta_element_set_no": 999,
        "meta_rev_at_epoch": 280,
        "meta_bstar": 0.00010583,
        "meta_mean_motion_dot": 1.5e-07,
        "meta_mean_motion_ddot": 0,
        "tle_line1": "1 66920U 25285F   25360.22149516  .00000015  00000+0  10583-3 0  9996",
        "tle_line2": "2 66920  50.0089  62.3068 0004485 337.6061  22.4646 14.03224112  2803"
      },
      "geometry": {
        "type": "Point",
        "coordinates": [
          -128.5226245920785,
          11.820602310113118
        ]
      }
    },
    {
      "type": "Feature",
      "properties": {
        "norad_id": 66921,
        "name": "HULIANWANG DIGUI-111",
        "group": "last-30-days",
        "lat": 9.098623487989768,
        "lon": -126.12655154859068,
        "alt_km": 885.3542207820483,
        "timestamp": "2025-12-26T09:30:52.343423+00:00",
        "meta_object_name": "HULIANWANG DIGUI-111",
        "meta_object_id": "2025-285G",
        "meta_epoch": "2025-12-26T03:35:24.403200",
        "meta_mean_motion": 14.03346049,
        "meta_eccentricity": 0.000534,
        "meta_inclination": 50.0117,
        "meta_ra_of_asc_node": 62.6027,
        "meta_arg_of_pericenter": 341.1949,
        "meta_mean_anomaly": 18.8757,
        "meta_ephemeris_type": 0,
        "meta_classification_type": "U",
        "meta_norad_cat_id": 66921,
        "meta_element_set_no": 999,
        "meta_rev_at_epoch": 279,
        "meta_bstar": 0.00010783,
        "meta_mean_motion_dot": 1.8e-07,
        "meta_mean_motion_ddot": 0,
        "tle_line1": "1 66921U 25285G   25360.14958800  .00000018  00000+0  10783-3 0  9997",
        "tle_line2": "2 66921  50.0117  62.6027 0005340 341.1949  18.8757 14.03346049  2794"
      },
      "geometry": {
        "type": "Point",
        "coordinates": [
          -126.12655154859068,
          9.098623487989768
        ]
      }
    },
    {
      "type": "Feature",
      "properties": {
        "norad_id": 66922,
        "name": "HULIANWANG DIGUI-112",
        "group": "last-30-days",
        "lat": 4.669966627156885,
        "lon": -122.35046011769558,
        "alt_km": 886.5609234105814,
        "timestamp": "2025-12-26T09:30:52.343437+00:00",
        "meta_object_name": "HULIANWANG DIGUI-112",
        "meta_object_id": "2025-285H",
        "meta_epoch": "2025-12-26T05:16:18.890112",
        "meta_mean_motion": 14.03439224,
        "meta_eccentricity": 0.0006558,
        "meta_inclination": 50.0102,
        "meta_ra_of_asc_node": 62.3006,
        "meta_arg_of_pericenter": 350.2518,
        "meta_mean_anomaly": 9.8258,
        "meta_ephemeris_type": 0,
        "meta_classification_type": "U",
        "meta_norad_cat_id": 66922,
        "meta_element_set_no": 999,
        "meta_rev_at_epoch": 280,
        "meta_bstar": 0.00010957,
        "meta_mean_motion_dot": 2.1e-07,
        "meta_mean_motion_ddot": 0,
        "tle_line1": "1 66922U 25285H   25360.21966308  .00000021  00000+0  10957-3 0  9995",
        "tle_line2": "2 66922  50.0102  62.3006 0006558 350.2518   9.8258 14.03439224  2804"
      },
      "geometry": {
        "type": "Point",
        "coordinates": [
          -122.35046011769558,
          4.669966627156885
        ]
      }
    },
    {
      "type": "Feature",
      "properties": {
        "norad_id": 66923,
        "name": "HULIANWANG DIGUI-113",
        "group": "last-30-days",
        "lat": -0.32204214919023033,
        "lon": -118.15941165553537,
        "alt_km": 885.5251159933459,
        "timestamp": "2025-12-26T09:30:52.343449+00:00",
        "meta_object_name": "HULIANWANG DIGUI-113",
        "meta_object_id": "2025-285J",
        "meta_epoch": "2025-12-26T05:14:28.426848",
        "meta_mean_motion": 14.03554526,
        "meta_eccentricity": 0.0004967,
        "meta_inclination": 50.0098,
        "meta_ra_of_asc_node": 62.2953,
        "meta_arg_of_pericenter": 342.5966,
        "meta_mean_anomaly": 17.4768,
        "meta_ephemeris_type": 0,
        "meta_classification_type": "U",
        "meta_norad_cat_id": 66923,
        "meta_element_set_no": 999,
        "meta_rev_at_epoch": 280,
        "meta_bstar": 0.00012075,
        "meta_mean_motion_dot": 3.9e-07,
        "meta_mean_motion_ddot": 0,
        "tle_line1": "1 66923U 25285J   25360.21838457  .00000039  00000+0  12075-3 0  9991",
        "tle_line2": "2 66923  50.0098  62.2953 0004967 342.5966  17.4768 14.03554526  2806"
      },
      "geometry": {
        "type": "Point",
        "coordinates": [
          -118.15941165553537,
          -0.32204214919023033
        ]
      }
    },
    {
      "type": "Feature",
      "properties": {
        "norad_id": 66924,
        "name": "CZ-8A R/B",
        "group": "last-30-days",
        "lat": -32.63369191740915,
        "lon": -89.46499543091352,
        "alt_km": 763.3031318583871,
        "timestamp": "2025-12-26T09:30:52.343473+00:00",
        "meta_object_name": "CZ-8A R/B",
        "meta_object_id": "2025-285K",
        "meta_epoch": "2025-12-25T10:40:55.363008",
        "meta_mean_motion": 14.30506687,
        "meta_eccentricity": 0.0119239,
        "meta_inclination": 50.0085,
        "meta_ra_of_asc_node": 62.0719,
        "meta_arg_of_pericenter": 151.535,
        "meta_mean_anomaly": 209.2146,
        "meta_ephemeris_type": 0,
        "meta_classification_type": "U",
        "meta_norad_cat_id": 66924,
        "meta_element_set_no": 999,
        "meta_rev_at_epoch": 274,
        "meta_bstar": 6.6135e-05,
        "meta_mean_motion_dot": 2.1e-07,
        "meta_mean_motion_ddot": 0,
        "tle_line1": "1 66924U 25285K   25359.44508522  .00000021  00000+0  66135-4 0  9990",
        "tle_line2": "2 66924  50.0085  62.0719 0119239 151.5350 209.2146 14.30506687  2744"
      },
      "geometry": {
        "type": "Point",
        "coordinates": [
          -89.46499543091352,
          -32.63369191740915
        ]
      }
    },
    {
      "type": "Feature",
      "properties": {
        "norad_id": 66925,
        "name": "STARLINK-35945",
        "group": "last-30-days",
        "lat": 42.95269872090972,
        "lon": 26.708701356015435,
        "alt_km": 387.5198363653044,
        "timestamp": "2025-12-26T09:30:52.343484+00:00",
        "meta_object_name": "STARLINK-35945",
        "meta_object_id": "2025-286A",
        "meta_epoch": "2025-12-26T04:00:01.998720",
        "meta_mean_motion": 15.58785459,
        "meta_eccentricity": 0.0001573,
        "meta_inclination": 53.1592,
        "meta_ra_of_asc_node": 343.5562,
        "meta_arg_of_pericenter": 83.8037,
        "meta_mean_anomaly": 125.0578,
        "meta_ephemeris_type": 0,
        "meta_classification_type": "U",
        "meta_norad_cat_id": 66925,
        "meta_element_set_no": 999,
        "meta_rev_at_epoch": 414,
        "meta_bstar": -0.028739,
        "meta_mean_motion_dot": -0.01984869,
        "meta_mean_motion_ddot": 0,
        "tle_line1": "1 66925U 25286A   25360.16668980 -.01984869  00000+0 -28739-1 0  9997",
        "tle_line2": "2 66925  53.1592 343.5562 0001573  83.8037 125.0578 15.58785459  4142"
      },
      "geometry": {
        "type": "Point",
        "coordinates": [
          26.708701356015435,
          42.95269872090972
        ]
      }
    }
  ]
}